{
  "type": "FeatureCollection",
  "features": [
    {
      "type": "Feature",
      "properties": {
        "norad_id": 36828,
        "name": "BEIDOU-2 IGSO-1 (C06)",
        "group": "beidou",
        "lat": -5.422763006087233,
        "lon": -11.42749864548788,
        "alt_km": 35597.674035373726,
        "timestamp": "2025-12-11T10:53:16.151291+00:00",
        "meta_object_name": "BEIDOU-2 IGSO-1 (C06)",
        "meta_object_id": "2010-036A",
        "meta_epoch": "2025-12-10T22:02:21.652224",
        "meta_mean_motion": 1.00276584,
        "meta_eccentricity": 0.0051188,
        "meta_inclination": 54.2844,
        "meta_ra_of_asc_node": 164.6636,
        "meta_arg_of_pericenter": 215.8581,
        "meta_mean_anomaly": 137.825,
        "meta_ephemeris_type": 0,
        "meta_classification_type": "U",
        "meta_norad_cat_id": 36828,
        "meta_element_set_no": 999,
        "meta_rev_at_epoch": 5620,
        "meta_bstar": 0,
        "meta_mean_motion_dot": -5.7e-07,
        "meta_mean_motion_ddot": 0,
        "tle_line1": "1 36828U 10036A   25344.91830616 -.00000057  00000+0  00000+0 0  9990",
        "tle_line2": "2 36828  54.2844 164.6636 0051188 215.8581 137.8250  1.00276584 56203"
      },
      "geometry": {
        "type": "Point",
        "coordinates": [
          -11.42749864548788,
          -5.422763006087233
        ]
      }
    },
    {
      "type": "Feature",
      "properties": {
        "norad_id": 37210,
        "name": "BEIDOU-2 G4 (C04)",
        "group": "beidou",
        "lat": -1.3818555802450874,
        "lon": 43.91156692122523,
        "alt_km": 35823.67557319818,
        "timestamp": "2025-12-11T10:53:16.151318+00:00",
        "meta_object_name": "BEIDOU-2 G4 (C04)",
        "meta_object_id": "2010-057A",
        "meta_epoch": "2025-12-11T04:00:01.931328",
        "meta_mean_motion": 1.00271338,
        "meta_eccentricity": 0.0010943,
        "meta_inclination": 3.181,
        "meta_ra_of_asc_node": 69.9412,
        "meta_arg_of_pericenter": 190.3244,
        "meta_mean_anomaly": 39.9467,
        "meta_ephemeris_type": 0,
        "meta_classification_type": "U",
        "meta_norad_cat_id": 37210,
        "meta_element_set_no": 999,
        "meta_rev_at_epoch": 5540,
        "meta_bstar": 0,
        "meta_mean_motion_dot": -1.06e-06,
        "meta_mean_motion_ddot": 0,
        "tle_line1": "1 37210U 10057A   25345.16668902 -.00000106  00000+0  00000+0 0  9999",
        "tle_line2": "2 37210   3.1810  69.9412 0010943 190.3244  39.9467  1.00271338 55406"
      },
      "geometry": {
        "type": "Point",
        "coordinates": [
          43.91156692122523,
          -1.3818555802450874
        ]
      }
    },
    {
      "type": "Feature",
      "properties": {
        "norad_id": 37256,
        "name": "BEIDOU-2 IGSO-2 (C07)",
        "group": "beidou",
        "lat": 46.263271494513035,
        "lon": -15.204371554652305,
        "alt_km": 35933.777303850744,
        "timestamp": "2025-12-11T10:53:16.151334+00:00",
        "meta_object_name": "BEIDOU-2 IGSO-2 (C07)",
        "meta_object_id": "2010-068A",
        "meta_epoch": "2025-12-03T17:22:36.027840",
        "meta_mean_motion": 1.0028872,
        "meta_eccentricity": 0.00492449,
        "meta_inclination": 47.9042,
        "meta_ra_of_asc_node": 274.2614,
        "meta_arg_of_pericenter": 216.1411,
        "meta_mean_anomaly": 310.24,
        "meta_ephemeris_type": 0,
        "meta_classification_type": "U",
        "meta_norad_cat_id": 37256,
        "meta_element_set_no": 999,
        "meta_rev_at_epoch": 5483,
        "meta_bstar": 0,
        "meta_mean_motion_dot": -2.25e-06,
        "meta_mean_motion_ddot": 0,
        "tle_line1": "1 37256U 10068A   25337.72402810 -.00000225  00000+0  00000+0 0  9990",
        "tle_line2": "2 37256  47.9042 274.2614 0049244 216.1411 310.2400  1.00288720 54834"
      },
      "geometry": {
        "type": "Point",
        "coordinates": [
          -15.204371554652305,
          46.263271494513035
        ]
      }
    },
    {
      "type": "Feature",
      "properties": {
        "norad_id": 37384,
        "name": "BEIDOU-2 IGSO-3 (C08)",
        "group": "beidou",
        "lat": -42.90148942924316,
        "lon": 12.559946188977705,
        "alt_km": 35871.53418442506,
        "timestamp": "2025-12-11T10:53:16.151349+00:00",
        "meta_object_name": "BEIDOU-2 IGSO-3 (C08)",
        "meta_object_id": "2011-013A",
        "meta_epoch": "2025-12-11T02:02:50.654400",
        "meta_mean_motion": 1.00270762,
        "meta_eccentricity": 0.0035342,
        "meta_inclination": 62.1408,
        "meta_ra_of_asc_node": 41.9319,
        "meta_arg_of_pericenter": 187.1031,
        "meta_mean_anomaly": 349.3097,
        "meta_ephemeris_type": 0,
        "meta_classification_type": "U",
        "meta_norad_cat_id": 37384,
        "meta_element_set_no": 999,
        "meta_rev_at_epoch": 5377,
        "meta_bstar": 0,
        "meta_mean_motion_dot": -1.95e-06,
        "meta_mean_motion_ddot": 0,
        "tle_line1": "1 37384U 11013A   25345.08530850 -.00000195  00000+0  00000+0 0  9993",
        "tle_line2": "2 37384  62.1408  41.9319 0035342 187.1031 349.3097  1.00270762 53775"
      },
      "geometry": {
        "type": "Point",
        "coordinates": [
          12.559946188977705,
          -42.90148942924316
        ]
      }
    },
    {
      "type": "Feature",
      "properties": {
        "norad_id": 37763,
        "name": "BEIDOU-2 IGSO-4 (C09)",
        "group": "beidou",
        "lat": 8.719916857600937,
        "lon": -18.920239654481094,
        "alt_km": 35470.62058516918,
        "timestamp": "2025-12-11T10:53:16.151362+00:00",
        "meta_object_name": "BEIDOU-2 IGSO-4 (C09)",
        "meta_object_id": "2011-038A",
        "meta_epoch": "2025-12-10T12:04:03.489024",
        "meta_mean_motion": 1.00284678,
        "meta_eccentricity": 0.01490344,
        "meta_inclination": 54.5829,
        "meta_ra_of_asc_node": 167.3658,
        "meta_arg_of_pericenter": 230.2355,
        "meta_mean_anomaly": 317.2212,
        "meta_ephemeris_type": 0,
        "meta_classification_type": "U",
        "meta_norad_cat_id": 37763,
        "meta_element_set_no": 999,
        "meta_rev_at_epoch": 5275,
        "meta_bstar": 0,
        "meta_mean_motion_dot": 3.6e-07,
        "meta_mean_motion_ddot": 0,
        "tle_line1": "1 37763U 11038A   25344.50281816  .00000036  00000+0  00000+0 0  9995",
        "tle_line2": "2 37763  54.5829 167.3658 0149034 230.2355 317.2212  1.00284678 52751"
      },
      "geometry": {
        "type": "Point",
        "coordinates": [
          -18.920239654481094,
          8.719916857600937
        ]
      }
    },
    {
      "type": "Feature",
      "properties": {
        "norad_id": 37948,
        "name": "BEIDOU-2 IGSO-5 (C10)",
        "group": "beidou",
        "lat": 41.201627282520626,
        "lon": -34.2673918375744,
        "alt_km": 36211.01245848992,
        "timestamp": "2025-12-11T10:53:16.151392+00:00",
        "meta_object_name": "BEIDOU-2 IGSO-5 (C10)",
        "meta_object_id": "2011-073A",
        "meta_epoch": "2025-12-10T19:06:36.578016",
        "meta_mean_motion": 1.00291414,
        "meta_eccentricity": 0.01102762,
        "meta_inclination": 48.0237,
        "meta_ra_of_asc_node": 273.8811,
        "meta_arg_of_pericenter": 222.2535,
        "meta_mean_anomaly": 323.1484,
        "meta_ephemeris_type": 0,
        "meta_classification_type": "U",
        "meta_norad_cat_id": 37948,
        "meta_element_set_no": 999,
        "meta_rev_at_epoch": 5124,
        "meta_bstar": 0,
        "meta_mean_motion_dot": -2.16e-06,
        "meta_mean_motion_ddot": 0,
        "tle_line1": "1 37948U 11073A   25344.79625669 -.00000216  00000+0  00000+0 0  9999",
        "tle_line2": "2 37948  48.0237 273.8811 0110276 222.2535 323.1484  1.00291414 51244"
      },
      "geometry": {
        "type": "Point",
        "coordinates": [
          -34.2673918375744,
          41.201627282520626
        ]
      }
    },
    {
      "type": "Feature",
      "properties": {
        "norad_id": 38091,
        "name": "BEIDOU-2 G5 (C05)",
        "group": "beidou",
        "lat": -2.4531658442255155,
        "lon": -57.52505928220753,
        "alt_km": 35732.652461200574,
        "timestamp": "2025-12-11T10:53:16.151408+00:00",
        "meta_object_name": "BEIDOU-2 G5 (C05)",
        "meta_object_id": "2012-008A",
        "meta_epoch": "2025-12-11T03:31:04.703808",
        "meta_mean_motion": 1.00274948,
        "meta_eccentricity": 0.0012575,
        "meta_inclination": 3.1056,
        "meta_ra_of_asc_node": 70.7117,
        "meta_arg_of_pericenter": 226.7505,
        "meta_mean_anomaly": 254.1865,
        "meta_ephemeris_type": 0,
        "meta_classification_type": "U",
        "meta_norad_cat_id": 38091,
        "meta_element_set_no": 999,
        "meta_rev_at_epoch": 5048,
        "meta_bstar": 0,
        "meta_mean_motion_dot": 6.2e-07,
        "meta_mean_motion_ddot": 0,
        "tle_line1": "1 38091U 12008A   25345.14658222  .00000062  00000+0  00000+0 0  9997",
        "tle_line2": "2 38091   3.1056  70.7117 0012575 226.7505 254.1865  1.00274948 50481"
      },
      "geometry": {
        "type": "Point",
        "coordinates": [
          -57.52505928220753,
          -2.4531658442255155
        ]
      }
    }
  ]
}